2026-134H               
1 69545U 26134H   26187.20950611  .00005993  00000+0  37323-3 0  9999
2 69545  97.7021 257.4082 0015249 209.8841 150.1519 15.09869176  3162
STARLINK-37880          
1 69546U 26135A   26187.08054730 -.00884001  00000+0 -57065-2 0  9995
2 69546  97.2847 215.1683 0001201   9.3763 350.7526 15.78361717  3240
STARLINK-37881          
1 69547U 26135B   26187.07939134  .00119506  00000+0  61313-3 0  9996
2 69547  97.2849 215.1691 0001045  62.9978 297.1397 15.80923183  3245
STARLINK-37265          
1 69548U 26135C   26187.07871143  .00066851  00000+0  34613-3 0  9999
2 69548  97.2849 215.1691 0001103  24.0271 336.1049 15.80876030  3242
STARLINK-37871          
1 69549U 26135D   26187.07778473  .00111633  00000+0  57339-3 0  9991
2 69549  97.2847 215.1713 0000280 137.9639 222.1651 15.80919990  3249
STARLINK-37865          
1 69550U 26135E   26187.01303703  .00285141  00000+0  14346-2 0  9993
2 69550  97.2843 215.1063 0001207 117.9018 242.2373 15.80917190  3237
STARLINK-37862          
1 69551U 26135F   26187.07353890  .00215924  00000+0  10961-2 0  9993
2 69551  97.2845 215.1776 0000906  39.5367 320.5967 15.80901311  3240
STARLINK-37861          
1 69552U 26135G   26187.07163607  .00109220  00000+0  56266-3 0  9999
2 69552  97.2850 215.1801 0000669  51.7239 308.4089 15.80862086  3241
STARLINK-37859          
1 69553U 26135H   26187.07069839  .00132389  00000+0  68080-3 0  9991
2 69553  97.2852 215.1807 0000642  35.9969 324.1342 15.80837649  3249
STARLINK-37860          
1 69554U 26135J   26187.07042038  .00354610  00000+0  17687-2 0  9993
2 69554  97.2860 215.1868 0001328   6.5676 353.5609 15.80928229  3244
STARLINK-37858          
1 69555U 26135K   26185.04296896  .00308347  00000+0  15434-2 0  9996
2 69555  97.2826 213.0416 0001544 124.8272 235.3142 15.80969658  2923
STARLINK-37927          
1 69556U 26135L   26186.37229588  .00731774  00000+0  35083-2 0  9994
2 69556  97.2834 214.4487 0001244 150.3245 209.8094 15.80824957  3135
STARLINK-37929          
1 69557U 26135M   26187.06752642  .00118752  00000+0  61015-3 0  9994
2 69557  97.2842 215.1857 0001654  10.4419 349.6883 15.80892740  3244
STARLINK-37954          
1 69558U 26135N   26187.06631398  .00291474  00000+0  14672-2 0  9998
2 69558  97.2844 215.1881 0001024 107.2061 252.9320 15.80889664  3246
STARLINK-37958          
1 69559U 26135P   26185.00003471  .00106489  00000+0  55099-3 0  9996
2 69559  97.2829 213.0090 0001423  88.1489  54.8962 15.80773563  4010
STARLINK-37950          
1 69560U 26135Q   26187.06230424  .00707385  00000+0  29846-2 0  9998
2 69560  97.2852 215.1934 0013080 170.4054 189.7468 15.83594804  3248
STARLINK-37952          
1 69561U 26135R   26187.06230672  .00145244  00000+0  74287-3 0  9994
2 69561  97.2838 215.1935 0001610   9.1771 350.9527 15.80921277  3247
STARLINK-37935          
1 69562U 26135S   26187.06153317  .00305156  00000+0  15326-2 0  9993
2 69562  97.2850 215.1951 0000891 121.4981 238.6375 15.80904457  3245
STARLINK-37936          
1 69563U 26135T   26186.16792685 -.00151928  00000+0 -80102-3 0  9994
2 69563  97.2835 214.2671 0000798 119.3960 240.7388 15.80960470  3107
STARLINK-37932          
1 69564U 26135U   26186.16794236  .00449826  00000+0  22252-2 0  9995
2 69564  97.2825 214.2669 0003000 127.3814 232.7728 15.80865407  3103
STARLINK-37916          
1 69565U 26135V   26187.05360567  .00050199  00000+0  26078-3 0  9993
2 69565  97.2841 215.2053 0001369  75.2990 284.8430 15.80859865  3246
STARLINK-37909          
1 69566U 26135W   26187.04728904  .00052796  00000+0  27471-3 0  9999
2 69566  97.2830 215.2145 0001106  81.2182 278.9212 15.80816357  3247
STARLINK-37934          
1 69567U 26135X   26187.05050105  .00071095  00000+0  36828-3 0  9991
2 69567  97.2831 215.2101 0001798  94.8266 265.3207 15.80851197  3246
STARLINK-37938          
1 69568U 26135Y   26187.04805495  .00049292  00000+0  25616-3 0  9998
2 69568  97.2838 215.2138 0001090  34.7961 325.3378 15.80856100  3249
STARLINK-37924          
1 69569U 26135Z   26187.17189891  .00191295  00000+0  97425-3 0  9996
2 69569  97.2830 215.3510 0001559  54.9816 305.1598 15.80893047  3263
SHIJIAN-31 (SJ-31)      
1 69570U 26136A   26186.70248417  .00000123  00000+0  00000+0 0  9995
2 69570  63.4834 354.1719 6940624 171.8064 212.3852  1.92223073   445
CZ-3B R/B               
1 69571U 26136B   26186.57222141  .00414994  55814-4  59903-3 0  9990
2 69571  63.4394 352.4023 7298724 171.4752 216.8535  2.32696843   456
GUOWANG OBJECT A        
1 69572U 26137A   26187.20531190 -.00000087  00000+0  47874-4 0  9992
2 69572  49.9990 179.6801 0012642 288.3947  71.5577 13.89812737  2664
GUOWANG OBJECT B        
1 69573U 26137B   26187.20240522 -.00000210  00000+0 -51553-4 0  9997
2 69573  50.0020 179.6636 0011867 287.4574  72.5026 13.89804368  2674
GUOWANG OBJECT C        
1 69574U 26137C   26187.20133429 -.00000148  00000+0 -20371-5 0  9990
2 69574  49.9959 179.6457 0011946 289.4810  70.4798 13.89814815  2678
