OBJECT_NAME,OBJECT_ID,EPOCH,MEAN_MOTION,ECCENTRICITY,INCLINATION,RA_OF_ASC_NODE,ARG_OF_PERICENTER,MEAN_ANOMALY,EPHEMERIS_TYPE,CLASSIFICATION_TYPE,NORAD_CAT_ID,ELEMENT_SET_NO,REV_AT_EPOCH,BSTAR,MEAN_MOTION_DOT,MEAN_MOTION_DDOT
2026-134H,2026-134H,2026-07-06T05:01:41.327904,15.09869176,.00152497,97.7021,257.4082,209.8841,150.1519,0,U,69545,999,316,.3732311E-3,.5993E-4,0
STARLINK-37880,2026-135A,2026-07-06T01:55:59.286720,15.78361717,.00012016,97.2847,215.1683,9.3763,350.7526,0,U,69546,999,324,-.57064579E-2,-.884001E-2,0
STARLINK-37881,2026-135B,2026-07-06T01:54:19.411776,15.80923183,.00010457,97.2849,215.1691,62.9978,297.1397,0,U,69547,999,324,.61313215E-3,.119506E-2,0
STARLINK-37265,2026-135C,2026-07-06T01:53:20.667552,15.80876030,.00011036,97.2849,215.1691,24.0271,336.1049,0,U,69548,999,324,.34613353E-3,.66851E-3,0
STARLINK-37871,2026-135D,2026-07-06T01:52:00.600672,15.80919990,.00002802,97.2847,215.1713,137.9639,222.1651,0,U,69549,999,324,.57339116E-3,.111633E-2,0
STARLINK-37865,2026-135E,2026-07-06T00:18:46.399392,15.80917190,.00012078,97.2843,215.1063,117.9018,242.2373,0,U,69550,999,323,.1434606E-2,.285141E-2,0
STARLINK-37862,2026-135F,2026-07-06T01:45:53.760960,15.80901311,.00009064,97.2845,215.1776,39.5367,320.5967,0,U,69551,999,324,.10960643E-2,.215924E-2,0
STARLINK-37861,2026-135G,2026-07-06T01:43:09.356448,15.80862086,.0000669,97.2850,215.1801,51.7239,308.4089,0,U,69552,999,324,.56265949E-3,.10922E-2,0
STARLINK-37859,2026-135H,2026-07-06T01:41:48.340896,15.80837649,.00006428,97.2852,215.1807,35.9969,324.1342,0,U,69553,999,324,.68079699E-3,.132389E-2,0
STARLINK-37860,2026-135J,2026-07-06T01:41:24.320832,15.80928229,.00013287,97.2860,215.1868,6.5676,353.5609,0,U,69554,999,324,.17687314E-2,.35461E-2,0
STARLINK-37858,2026-135K,2026-07-04T01:01:52.518144,15.80969658,.0001544,97.2826,213.0416,124.8272,235.3142,0,U,69555,999,292,.15434E-2,.308347E-2,0
STARLINK-37927,2026-135L,2026-07-05T08:56:06.364032,15.80824957,.0001244,97.2834,214.4487,150.3245,209.8094,0,U,69556,999,313,.35083E-2,.731774E-2,0
STARLINK-37929,2026-135M,2026-07-06T01:37:14.282688,15.80892740,.00016541,97.2842,215.1857,10.4419,349.6883,0,U,69557,999,324,.61015074E-3,.118752E-2,0
STARLINK-37954,2026-135N,2026-07-06T01:35:29.527872,15.80889664,.00010241,97.2844,215.1881,107.2061,252.9320,0,U,69558,999,324,.14672071E-2,.291474E-2,0
STARLINK-37958,2026-135P,2026-07-04T00:00:02.998944,15.80773563,.0001423,97.2829,213.0090,88.1489,54.8962,0,U,69559,999,401,.55099E-3,.106489E-2,0
STARLINK-37950,2026-135Q,2026-07-06T01:29:43.086336,15.83594804,.00130801,97.2852,215.1934,170.4054,189.7468,0,U,69560,999,324,.29845687E-2,.707385E-2,0
STARLINK-37952,2026-135R,2026-07-06T01:29:43.300608,15.80921277,.00016104,97.2838,215.1935,9.1771,350.9527,0,U,69561,999,324,.74286685E-3,.145244E-2,0
STARLINK-37935,2026-135S,2026-07-06T01:28:36.465888,15.80904457,.00008915,97.2850,215.1951,121.4981,238.6375,0,U,69562,999,324,.15325653E-2,.305156E-2,0
STARLINK-37936,2026-135T,2026-07-05T04:01:48.879840,15.80960470,.0000798,97.2835,214.2671,119.3960,240.7388,0,U,69563,999,310,-.80102E-3,-.151928E-2,0
STARLINK-37932,2026-135U,2026-07-05T04:01:50.219904,15.80865407,.0003,97.2825,214.2669,127.3814,232.7728,0,U,69564,999,310,.22252E-2,.449826E-2,0
STARLINK-37916,2026-135V,2026-07-06T01:17:11.529888,15.80859865,.00013696,97.2841,215.2053,75.2990,284.8430,0,U,69565,999,324,.26078072E-3,.50199E-3,0
STARLINK-37909,2026-135W,2026-07-06T01:08:05.773056,15.80816357,.00011064,97.2830,215.2145,81.2182,278.9212,0,U,69566,999,324,.27470527E-3,.52796E-3,0
STARLINK-37934,2026-135X,2026-07-06T01:12:43.290720,15.80851197,.00017988,97.2831,215.2101,94.8266,265.3207,0,U,69567,999,324,.36827994E-3,.71095E-3,0
STARLINK-37938,2026-135Y,2026-07-06T01:09:11.947680,15.80856100,.00010909,97.2838,215.2138,34.7961,325.3378,0,U,69568,999,324,.25615988E-3,.49292E-3,0
STARLINK-37924,2026-135Z,2026-07-06T04:07:32.065824,15.80893047,.00015598,97.2830,215.3510,54.9816,305.1598,0,U,69569,999,326,.97425486E-3,.191295E-2,0
SHIJIAN-31 (SJ-31),2026-136A,2026-07-05T16:51:34.632288,1.92223073,.69406247,63.4834,354.1719,171.8064,212.3852,0,U,69570,999,44,0,.123E-5,0
CZ-3B R/B,2026-136B,2026-07-05T13:43:59.929824,2.32696843,.72987248,63.4394,352.4023,171.4752,216.8535,0,U,69571,999,45,.59902537E-3,.414994E-2,.55813863E-4
GUOWANG OBJECT A,2026-137A,2026-07-06T04:55:38.948160,13.89812737,.00126426,49.9990,179.6801,288.3947,71.5577,0,U,69572,999,266,.47873997E-4,-.87E-6,0
GUOWANG OBJECT B,2026-137B,2026-07-06T04:51:27.811008,13.89804368,.00118679,50.0020,179.6636,287.4574,72.5026,0,U,69573,999,267,-.51552844E-4,-.21E-5,0
GUOWANG OBJECT C,2026-137C,2026-07-06T04:49:55.282656,13.89814815,.00119469,49.9959,179.6457,289.4810,70.4798,0,U,69574,999,267,-.2037058E-5,-.148E-5,0
